{"distinct": [{"__class__": "tuple", "__value__": [{"donor_id": 239, "city": null, "name": "11-26-01 cash deposit", "zip": null, "state": "il", "address": null, "occupation": null, "employer": null, "person": 1}, {"donor_id": 323, "city": "berwyn", "name": "1201 south western llc", "zip": "604021059", "state": "il", "address": "7039 roosevelt rd", "occupation": null, "employer": null, "person": 1}]}, {"__class__": "tuple", "__value__": [{"donor_id": 142, "city": "chicago", "name": "1056 w. lake street, llc", "zip": "60607-1716", "state": "il", "address": "1056 w lake st", "occupation": null, "employer": null, "person": 1}, {"donor_id": 557, "city": "englewood", "name": "1358 e. 58th street, llc", "zip": "07631", "state": "nj", "address": "c/o mac property management 32 n. dean street - 2nd floor", "occupation": null, "employer": null, "person": 1}]}, {"__class__": "tuple", "__value__": [{"donor_id": 610, "city": "dolton", "name": "14136 lounge inc.", "zip": "60419", "state": "il", "address": "14136 chicago rd", "occupation": null, "employer": null, "person": 1}, {"donor_id": 957, "city": "peoria", "name": "18th district pac", "zip": "61603", "state": "il", "address": "400 ne jefferson", "occupation": null, "employer": null, "person": 1}]}, {"__class__": "tuple", "__value__": [{"donor_id": 887, "city": "new york", "name": "1-800 book a limo", "zip": "10016", "state": "ny", "address": "53 east 34th street", "occupation": null, "employer": null, "person": 1}, {"donor_id": 958, "city": "peoria", "name": "18th district pac", "zip": "61630", "state": "il", "address": "400 ne jefferson", "occupation": null, "employer": null, "person": 1}]}, {"__class__": "tuple", "__value__": [{"donor_id": 39, "city": "havertown", "name": "100% pro-life pac", "zip": "19083", "state": "pa", "address": "p.o. box 1601", "occupation": null, "employer": null, "person": 1}, {"donor_id": 547, "city": "chicago", "name": "1340 n. bosworth", "zip": "60607", "state": "il", "address": "355 n. laflin", "occupation": null, "employer": null, "person": 1}]}], "match": [{"__class__": "tuple", "__value__": [{"donor_id": 11, "city": null, "name": "08-05-03 fundraiser / mass collection (raffle)", "zip": null, "state": "il", "address": null, "occupation": null, "employer": null, "person": 1}, {"donor_id": 12, "city": null, "name": "08-11-03 fundraiser / mass collection (raffle)", "zip": null, "state": "il", "address": null, "occupation": null, "employer": null, "person": 1}]}, {"__class__": "tuple", "__value__": [{"donor_id": 331, "city": null, "name": "1-20 cash", "zip": null, "state": "il", "address": null, "occupation": null, "employer": null, "person": 1}, {"donor_id": 801, "city": null, "name": "1-6 cash deposit", "zip": null, "state": "il", "address": null, "occupation": null, "employer": null, "person": 1}]}, {"__class__": "tuple", "__value__": [{"donor_id": 111, "city": null, "name": "10-31-09 cash deposits", "zip": null, "state": "il", "address": null, "occupation": null, "employer": null, "person": 1}, {"donor_id": 204, "city": null, "name": "11-13-02 cash deposit", "zip": null, "state": "il", "address": null, "occupation": null, "employer": null, "person": 1}]}, {"__class__": "tuple", "__value__": [{"donor_id": 416, "city": "belleville", "name": "12 congressional district afl-cio", "zip": "62221", "state": "il", "address": "59 magnolia dr.", "occupation": null, "employer": null, "person": 1}, {"donor_id": 433, "city": "fairview heights", "name": "12 congressional district afl-cio cope contribution fund", "zip": "62221", "state": "il", "address": "59 magnolia drive", "occupation": null, "employer": null, "person": 1}]}]}