{"distinct": [{"__class__": "tuple", "__value__": [{"donor_id": 203503, "city": "grayslake", "name": "letter carriers branch 409", "zip": "60030", "state": "il", "address": "po box 409", "occupation": null, "employer": null, "person": 1}, {"donor_id": 234612, "city": "grayslake", "name": "nalc br. 409", "zip": "60504", "state": "il", "address": "pob 409", "occupation": null, "employer": null, "person": 1}]}, {"__class__": "tuple", "__value__": [{"donor_id": 60073, "city": "chicago", "name": "chicago service group, inc", "zip": "60632", "state": "il", "address": "2500 w 36th street suite 100", "occupation": null, "employer": null, "person": 1}, {"donor_id": 170840, "city": null, "name": "individuals less than $150", "zip": null, "state": "il", "address": null, "occupation": null, "employer": null, "person": 1}]}, {"__class__": "tuple", "__value__": [{"donor_id": 219392, "city": "richmond", "name": "mcguire woods pac", "zip": "23219", "state": "va", "address": "901 e cary st", "occupation": null, "employer": null, "person": 1}, {"donor_id": 648834, "city": "waterloo", "name": "sally t. gentsch,", "zip": "62298", "state": "il", "address": "p.o. box 209", "occupation": null, "employer": null, "person": 0}]}, {"__class__": "tuple", "__value__": [{"donor_id": 17827, "city": "rockford", "name": "amounts under $150", "zip": "61103", "state": "il", "address": "315 reynolds st", "occupation": null, "employer": null, "person": 1}, {"donor_id": 206934, "city": "countryside", "name": "local 150 iuoe pac", "zip": "60525", "state": "il", "address": "6200 joliet road", "occupation": null, "employer": null, "person": 1}]}, {"__class__": "tuple", "__value__": [{"donor_id": 302590, "city": "st. paul", "name": "st. paul fire and marine insurance company", "zip": null, "state": "mn", "address": null, "occupation": null, "employer": null, "person": 1}, {"donor_id": 364960, "city": "palatine", "name": "barbara zarob", "zip": "60067", "state": "il", "address": "902 cooper", "occupation": null, "employer": null, "person": 0}]}, {"__class__": "tuple", "__value__": [{"donor_id": 7481, "city": "spartanburg", "name": "advance business", "zip": "29302", "state": "sc", "address": "961 e. main street", "occupation": null, "employer": null, "person": 1}, {"donor_id": 222307, "city": "west point", "name": "merck & co. inc.", "zip": "19486", "state": "pa", "address": "p.o. box 4 wp39-303", "occupation": null, "employer": null, "person": 1}]}, {"__class__": "tuple", "__value__": [{"donor_id": 420298, "city": "durham", "name": "don beskind", "zip": "27708", "state": "nc", "address": "tower drive", "occupation": null, "employer": null, "person": 0}, {"donor_id": 648251, "city": null, "name": "ryan sommers", "zip": null, "state": "il", "address": null, "occupation": null, "employer": null, "person": 0}]}, {"__class__": "tuple", "__value__": [{"donor_id": 129424, "city": "macon", "name": "georgia farm bureau mutual insurance company", "zip": "31210-6503", "state": "ga", "address": "1620 bass road at i-75", "occupation": null, "employer": null, "person": 1}, {"donor_id": 343977, "city": null, "name": "wrjm", "zip": null, "state": "il", "address": null, "occupation": null, "employer": null, "person": 1}]}, {"__class__": "tuple", "__value__": [{"donor_id": 168557, "city": "chicago", "name": "il merchants pac", "zip": "60603", "state": "il", "address": "19 s lasalle st ste 300", "occupation": null, "employer": null, "person": 1}, {"donor_id": 208622, "city": "chicago", "name": "local union 705 political committee", "zip": "60612", "state": "il", "address": "1645 w jackson 7th floor", "occupation": null, "employer": null, "person": 1}]}, {"__class__": "tuple", "__value__": [{"donor_id": 45013, "city": "des plaines", "name": "cable television and communications association of il pac", "zip": "60018", "state": "il", "address": "2400 e. devon avenue suite 317", "occupation": null, "employer": null, "person": 1}, {"donor_id": 311172, "city": "rock island", "name": "the fidlar company pac", "zip": "61201", "state": "il", "address": "4450 48th avenue court", "occupation": null, "employer": null, "person": 1}]}, {"__class__": "tuple", "__value__": [{"donor_id": 187592, "city": "chicago", "name": "keane & keane", "zip": "60604", "state": "il", "address": "208 s. lasalle street suite 1630", "occupation": null, "employer": null, "person": 1}, {"donor_id": 222547, "city": "chicago", "name": "merlo kanofsky & brinkmeier", "zip": "60604", "state": "il", "address": "208 s.lasalle street suite 950", "occupation": null, "employer": null, "person": 1}]}, {"__class__": "tuple", "__value__": [{"donor_id": 67858, "city": "unknown", "name": "citizens for radogno", "zip": "00000", "state": "il", "address": "unknown", "occupation": null, "employer": null, "person": 1}, {"donor_id": 409193, "city": "unknown", "name": "david torri", "zip": "60000", "state": "il", "address": "unknown", "occupation": null, "employer": null, "person": 0}]}, {"__class__": "tuple", "__value__": [{"donor_id": 153290, "city": "springfield", "name": "ihha", "zip": "62704", "state": "il", "address": "700 s. second st.", "occupation": null, "employer": null, "person": 1}, {"donor_id": 155890, "city": "springfield", "name": "ill energy assoc", "zip": "62701", "state": "il", "address": "1 west old state capitol plaza suite 509 myers bldg", "occupation": null, "employer": null, "person": 1}]}, {"__class__": "tuple", "__value__": [{"donor_id": 93981, "city": "west chicago", "name": "deutsch's truck & diesel repair", "zip": "60185", "state": "il", "address": "625 w roosevelt rd", "occupation": null, "employer": null, "person": 1}, {"donor_id": 318489, "city": "chicago", "name": "touche'", "zip": "60626", "state": "il", "address": "6412 n. clark street", "occupation": null, "employer": null, "person": 1}]}, {"__class__": "tuple", "__value__": [{"donor_id": 104009, "city": "chicago", "name": "e. king construction co. inc.", "zip": "60652", "state": "il", "address": "3865 w. columbus", "occupation": null, "employer": null, "person": 1}, {"donor_id": 236934, "city": "addison", "name": "neri construction co. inc.", "zip": "60101", "state": "il", "address": "770 factory rd.", "occupation": null, "employer": null, "person": 1}]}, {"__class__": "tuple", "__value__": [{"donor_id": 57845, "city": "chicago", "name": "chicago fire fighters union local 2 pol comm fund", "zip": "60609", "state": "il", "address": "440 west 43es st.", "occupation": null, "employer": null, "person": 1}, {"donor_id": 298999, "city": "chicago", "name": "stagehand's union local #2", "zip": "60606", "state": "il", "address": "20 n wacker dr  ste 1032", "occupation": null, "employer": null, "person": 1}]}, {"__class__": "tuple", "__value__": [{"donor_id": 207299, "city": "chicago", "name": "local #399 - political education fund", "zip": "60661", "state": "il", "address": "763 west jackson", "occupation": null, "employer": null, "person": 1}, {"donor_id": 207617, "city": "warrenville", "name": "local 701 ibew political education fund", "zip": "60555", "state": "il", "address": "28600 bella vista parkway ste 1000", "occupation": null, "employer": null, "person": 1}]}, {"__class__": "tuple", "__value__": [{"donor_id": 444136, "city": "tierra verde", "name": "frank & barbara pinn", "zip": "33715", "state": "fl", "address": "900 pinellas bayway s unit 113", "occupation": null, "employer": null, "person": 0}, {"donor_id": 444137, "city": "chicago", "name": "frank & barbara van husen", "zip": "60614", "state": "il", "address": "399 w. fullerton", "occupation": null, "employer": null, "person": 0}]}, {"__class__": "tuple", "__value__": [{"donor_id": 159832, "city": "springfield", "name": "illinois dept. of revenue", "zip": "62794", "state": "il", "address": "p.o. box 19008", "occupation": null, "employer": null, "person": 1}, {"donor_id": 170896, "city": "chicago", "name": "industrial container and equipment corp.", "zip": "60680", "state": "il", "address": "p. o. box 4581", "occupation": null, "employer": null, "person": 1}]}, {"__class__": "tuple", "__value__": [{"donor_id": 175709, "city": "chicago", "name": "iuoe local 399 pef", "zip": "60616", "state": "il", "address": "2260 s. grove st.", "occupation": null, "employer": null, "person": 1}, {"donor_id": 207191, "city": "chicago", "name": "local 399-iuoe", "zip": "60661", "state": "il", "address": "763 w jackson", "occupation": null, "employer": null, "person": 1}]}, {"__class__": "tuple", "__value__": [{"donor_id": 125253, "city": "steger", "name": "friends of toi hutchinson", "zip": "60475", "state": "il", "address": "p. o. box 101", "occupation": null, "employer": null, "person": 1}, {"donor_id": 309894, "city": "springield", "name": "the alliance pac", "zip": "62705-0132", "state": "il", "address": "p.o. box 132", "occupation": null, "employer": null, "person": 1}]}, {"__class__": "tuple", "__value__": [{"donor_id": 665901, "city": "warrenville", "name": "steven e. mayer, m.d.", "zip": "60555", "state": "il", "address": "suite 100 27650 ferry road", "occupation": null, "employer": null, "person": 0}, {"donor_id": 703662, "city": "warrenville", "name": "william r. sterbba ii, m.d.", "zip": "60555", "state": "il", "address": "suite 100 27650 ferry road", "occupation": null, "employer": null, "person": 0}]}, {"__class__": "tuple", "__value__": [{"donor_id": 364841, "city": "chicago", "name": "barbara stone", "zip": "60614", "state": "il", "address": "399 w fullerton pkwy", "occupation": null, "employer": null, "person": 0}, {"donor_id": 608696, "city": "chicago", "name": "peter barrett,", "zip": "60614", "state": "il", "address": "399 w fullerton pkwy", "occupation": null, "employer": null, "person": 0}]}, {"__class__": "tuple", "__value__": [{"donor_id": 3824, "city": "chicago", "name": "7-d construction co", "zip": "60629", "state": "il", "address": "3924 w 62nd place", "occupation": null, "employer": null, "person": 1}, {"donor_id": 3901, "city": "chicago", "name": "7th ward democratic organization", "zip": "60649", "state": "il", "address": "2552 easr 79th street", "occupation": null, "employer": null, "person": 1}]}, {"__class__": "tuple", "__value__": [{"donor_id": 286776, "city": "chicago", "name": "seiu local 73 b-pac", "zip": "60610-2845", "state": "il", "address": "1165 n. clark st. ste. 500", "occupation": null, "employer": null, "person": 1}, {"donor_id": 289444, "city": "chicago", "name": "sheetmetal workers #73", "zip": "60606", "state": "il", "address": "205 w wacker dr suite # 1700", "occupation": null, "employer": null, "person": 1}]}, {"__class__": "tuple", "__value__": [{"donor_id": 196117, "city": "hazel crest", "name": "lanco international", "zip": "60429", "state": "il", "address": "3111 w. 167th street", "occupation": null, "employer": null, "person": 1}, {"donor_id": 227506, "city": "hazel crest", "name": "mi-jack products, inc.", "zip": "60429", "state": "il", "address": "3111 west 167th street", "occupation": null, "employer": null, "person": 1}]}, {"__class__": "tuple", "__value__": [{"donor_id": 234959, "city": "chicago", "name": "nash lalich & kralovec", "zip": "60602", "state": "il", "address": "30 n. lasalle suite 1526", "occupation": null, "employer": null, "person": 1}, {"donor_id": 591095, "city": "chicago", "name": "myron cherry", "zip": "60602", "state": "il", "address": "30 n lasalle #2300", "occupation": "lawyer", "employer": "self", "person": 0}]}, {"__class__": "tuple", "__value__": [{"donor_id": 103640, "city": "carbondale", "name": "eggemeyer associates architects", "zip": "62903", "state": "il", "address": "po box 1447 2015 west main", "occupation": null, "employer": null, "person": 1}, {"donor_id": 342913, "city": "carbondale", "name": "womick law firm chartered", "zip": "62903", "state": "il", "address": "po box 1355", "occupation": null, "employer": null, "person": 1}]}], "match": [{"__class__": "tuple", "__value__": [{"donor_id": 173044, "city": "chicago", "name": "international union of elevator constructors #2", "zip": "60607", "state": "il", "address": "300 s. ashland ave.", "occupation": null, "employer": null, "person": 1}, {"donor_id": 173050, "city": "chicago ridge", "name": "international union of elevator constructors #2", "zip": "60415", "state": "il", "address": "5860 w 111th st", "occupation": null, "employer": null, "person": 1}]}, {"__class__": "tuple", "__value__": [{"donor_id": 286622, "city": "chicago", "name": "s.e.i.u. local 73", "zip": "60607", "state": "il", "address": "300 s. ashland ave., suite 400", "occupation": null, "employer": null, "person": 1}, {"donor_id": 286686, "city": "chicago", "name": "seiu local #73", "zip": "60610", "state": "il", "address": "1165 n. clark st", "occupation": null, "employer": null, "person": 1}]}, {"__class__": "tuple", "__value__": [{"donor_id": 139833, "city": "memphis", "name": "harrah's operating company, inc.", "zip": "38117", "state": "tn", "address": "1023 cherry road", "occupation": null, "employer": null, "person": 1}, {"donor_id": 139834, "city": "las vegas", "name": "harrah's operating company, inc.", "zip": "89114", "state": "nv", "address": "p.o. box 15000", "occupation": null, "employer": null, "person": 1}]}, {"__class__": "tuple", "__value__": [{"donor_id": 158832, "city": "springfield", "name": "illinois construction industry pac", "zip": "62704", "state": "il", "address": "300 w edwards ste. 300", "occupation": null, "employer": null, "person": 1}, {"donor_id": 158867, "city": "springfield", "name": "illinois construction industry pac", "zip": "62704", "state": "il", "address": "attn:  lyle ehlers & dennis larson 300 west edwards suite 300", "occupation": null, "employer": null, "person": 1}]}, {"__class__": "tuple", "__value__": [{"donor_id": 208246, "city": "countryside", "name": "local no. 150 i.u.o.e. local area political action comm.", "zip": "60525", "state": "il", "address": "6200 joliet road", "occupation": null, "employer": null, "person": 1}, {"donor_id": 208309, "city": "countryside", "name": "local no. 150-iuoe pac", "zip": "60525", "state": "il", "address": "6200 joliet rd.", "occupation": null, "employer": null, "person": 1}]}, {"__class__": "tuple", "__value__": [{"donor_id": 154447, "city": "des plaines", "name": "il community currency exchanges pac", "zip": "60018", "state": "il", "address": "1400 east touhy", "occupation": null, "employer": null, "person": 1}, {"donor_id": 158773, "city": "des plaines", "name": "illinois community currency exchnge pac", "zip": "60018", "state": "il", "address": "1400 e. touhy 405", "occupation": null, "employer": null, "person": 1}]}, {"__class__": "tuple", "__value__": [{"donor_id": 122268, "city": "hampton", "name": "friends of denny jacobs", "zip": "61256", "state": "il", "address": "po box 95", "occupation": null, "employer": null, "person": 1}, {"donor_id": 176902, "city": "hampton", "name": "jacobs friends of denny", "zip": "61256", "state": "il", "address": "po box 95", "occupation": null, "employer": null, "person": 1}]}, {"__class__": "tuple", "__value__": [{"donor_id": 207236, "city": "chicago", "name": "local 399 pac", "zip": "60601", "state": "il", "address": "793 w. jackson blvd.", "occupation": null, "employer": null, "person": 1}, {"donor_id": 207311, "city": "chicago", "name": "local #399 political education fund", "zip": "60661", "state": "il", "address": "763 west jackson blvd.", "occupation": null, "employer": null, "person": 1}]}, {"__class__": "tuple", "__value__": [{"donor_id": 219227, "city": "richmond", "name": "mcguire woods", "zip": "23219-4030", "state": "va", "address": "901 east cary st", "occupation": null, "employer": null, "person": 1}, {"donor_id": 219348, "city": "richmond", "name": "mcguire woods federal pac fund", "zip": "232194030", "state": "va", "address": "one james center 901 east cary street", "occupation": null, "employer": null, "person": 1}]}, {"__class__": "tuple", "__value__": [{"donor_id": 125811, "city": "springfield", "name": "frye-williamson press", "zip": "62705", "state": "il", "address": "po box 1057", "occupation": null, "employer": null, "person": 1}, {"donor_id": 125817, "city": "springfield", "name": "frye-williamson press inc", "zip": "62705", "state": "il", "address": "po box 1057", "occupation": null, "employer": null, "person": 1}]}, {"__class__": "tuple", "__value__": [{"donor_id": 25176, "city": "orlando", "name": "at &t", "zip": "32859-8145", "state": "fl", "address": "p. o. box 598145", "occupation": null, "employer": null, "person": 1}, {"donor_id": 25302, "city": "chicago", "name": "at&t", "zip": "60606", "state": "il", "address": "225 w. randolph, floor 27b", "occupation": null, "employer": null, "person": 1}]}, {"__class__": "tuple", "__value__": [{"donor_id": 156799, "city": "springfield", "name": "illinois assocation of realtors", "zip": "62794-9451", "state": "il", "address": "po box 19451", "occupation": null, "employer": null, "person": 1}, {"donor_id": 165587, "city": "springfield", "name": "illinois realtor pac", "zip": "62794", "state": "il", "address": "po box 19451", "occupation": null, "employer": null, "person": 1}]}, {"__class__": "tuple", "__value__": [{"donor_id": 208629, "city": "chicago", "name": "local union 726 - pac", "zip": "60607", "state": "il", "address": "300 s. ashland blvd.", "occupation": null, "employer": null, "person": 1}, {"donor_id": 307880, "city": "chicago", "name": "teamsters local #726", "zip": "60607", "state": "il", "address": "300 s. ashland blvd.", "occupation": null, "employer": null, "person": 1}]}, {"__class__": "tuple", "__value__": [{"donor_id": 367834, "city": "chicago", "name": "bernie hansen", "zip": "60657", "state": "il", "address": "420 w. belmont ave. apt. 13b", "occupation": "information requested", "employer": "information requested", "person": 0}, {"donor_id": 367837, "city": "chicago", "name": "bernie hansen", "zip": "60657", "state": "il", "address": "420 w belmont unit 13b", "occupation": "vice president", "employer": "new century bank", "person": 0}]}, {"__class__": "tuple", "__value__": [{"donor_id": 258610, "city": "chicago", "name": "plumbing contractors assoc. of chicago and cook county", "zip": "60607", "state": "il", "address": "1400 w. washington blvd.", "occupation": null, "employer": null, "person": 1}, {"donor_id": 258711, "city": "chicago", "name": "plumbing industry pac", "zip": "60607", "state": "il", "address": "1400 w washington blvd.", "occupation": null, "employer": null, "person": 1}]}, {"__class__": "tuple", "__value__": [{"donor_id": 478981, "city": "evanston", "name": "james young", "zip": "60201", "state": "il", "address": "2607 colfax", "occupation": null, "employer": null, "person": 0}, {"donor_id": 478984, "city": "evanston", "name": "james young", "zip": "60201", "state": "il", "address": "2607 colfax street", "occupation": null, "employer": null, "person": 0}]}, {"__class__": "tuple", "__value__": [{"donor_id": 515079, "city": "chicago", "name": "john w. rowe", "zip": "60680", "state": "il", "address": "p.o. box 805398", "occupation": "good effort attempt made", "employer": "good effort attempt made", "person": 0}, {"donor_id": 515080, "city": "chicago", "name": "john w. rowe", "zip": "60680-5398", "state": "il", "address": "p.o. box 805398", "occupation": null, "employer": null, "person": 0}]}, {"__class__": "tuple", "__value__": [{"donor_id": 75855, "city": "chicago", "name": "comedpac", "zip": "60605", "state": "il", "address": "1 finanical place 33rd floor", "occupation": null, "employer": null, "person": 1}, {"donor_id": 75934, "city": "chicago", "name": "comed pac", "zip": "60605", "state": "il", "address": "1 financial plaza, 33rd floor", "occupation": null, "employer": null, "person": 1}]}, {"__class__": "tuple", "__value__": [{"donor_id": 362264, "city": "batavia", "name": "arthur & gail zwemke", "zip": "60510", "state": "il", "address": "1351 davey dr", "occupation": null, "employer": null, "person": 0}, {"donor_id": 447185, "city": "batavia", "name": "gail zwemke", "zip": "60510", "state": "il", "address": "1351 davey drive", "occupation": null, "employer": null, "person": 0}]}, {"__class__": "tuple", "__value__": [{"donor_id": 215403, "city": "washington", "name": "marriott international", "zip": "20058", "state": "dc", "address": "marriott drive", "occupation": null, "employer": null, "person": 1}, {"donor_id": 215410, "city": "washington", "name": "marriott international inc.", "zip": "20058", "state": "dc", "address": "marriott drive", "occupation": null, "employer": null, "person": 1}]}, {"__class__": "tuple", "__value__": [{"donor_id": 515063, "city": "chicago", "name": "john w. rogers, jr.", "zip": "60601", "state": "il", "address": "200 e. randolph dr", "occupation": "chairman", "employer": "ariel  capital management", "person": 0}, {"donor_id": 515064, "city": "chicago", "name": "john w. rogers, jr.", "zip": "60601", "state": "il", "address": "200 e. randolph dr.", "occupation": null, "employer": null, "person": 0}]}, {"__class__": "tuple", "__value__": [{"donor_id": 8599, "city": "springfield", "name": "afscme", "zip": "62701", "state": "il", "address": "615 south second street p.o box 2328", "occupation": null, "employer": null, "person": 1}, {"donor_id": 9309, "city": "springfield", "name": "afscme illinois political contributions account", "zip": "627052328", "state": "il", "address": "p.o. 2328", "occupation": null, "employer": null, "person": 1}]}]}